{
  "norad_id": 53159,
  "name": "STARLINK-4111",
  "history": [
    {
      "epoch": "2026-03-28T06:08:32.616384Z",
      "apogee_km": 540.7708038770961,
      "perigee_km": 538.6553253273414,
      "latitude_deg": -6.523420478042445e-05,
      "longitude_deg": 162.95755508493173,
      "height_km": 540.1490625716705,
      "semi_major_axis_km": 6917.8500646022185,
      "eccentricity": 0.0001529,
      "inclination_deg": 53.2163,
      "raan_deg": 80.7725,
      "arg_perigee_deg": 64.2464,
      "mean_anomaly_deg": 295.8685,
      "mean_motion_rev_day": 15.08849921
    },
    {
      "epoch": "2026-03-29T04:23:56.108256Z",
      "apogee_km": 540.8095109755941,
      "perigee_km": 538.6248526249801,
      "latitude_deg": -3.62006921275416e-05,
      "longitude_deg": -175.96774934775982,
      "height_km": 540.157019251502,
      "semi_major_axis_km": 6917.854181800287,
      "eccentricity": 0.0001579,
      "inclination_deg": 53.2166,
      "raan_deg": 76.6091,
      "arg_perigee_deg": 65.3434,
      "mean_anomaly_deg": 294.7722,
      "mean_motion_rev_day": 15.08848574
    },
    {
      "epoch": "2026-03-30T02:39:20.228256Z",
      "apogee_km": 540.8537683093191,
      "perigee_km": 538.6165284565313,
      "latitude_deg": 4.161375226169484e-05,
      "longitude_deg": -154.89554113627298,
      "height_km": 540.1922406669337,
      "semi_major_axis_km": 6917.872148382925,
      "eccentricity": 0.0001617,
      "inclination_deg": 53.2167,
      "raan_deg": 72.4458,
      "arg_perigee_deg": 66.9285,
      "mean_anomaly_deg": 293.1878,
      "mean_motion_rev_day": 15.08842696
    },
    {
      "epoch": "2026-03-30T05:50:06.349056Z",
      "apogee_km": 540.8486995689118,
      "perigee_km": 538.6125680349614,
      "latitude_deg": 5.214809102023418e-07,
      "longitude_deg": 156.6870819414445,
      "height_km": 540.1822628028251,
      "semi_major_axis_km": 6917.867633801936,
      "eccentricity": 0.00016162,
      "inclination_deg": 53.2167,
      "raan_deg": 71.8512,
      "arg_perigee_deg": 66.611,
      "mean_anomaly_deg": 293.5052,
      "mean_motion_rev_day": 15.08844173
    }
  ]
}